$$SOE
2459580.500000000, A.D. 2022-Jan-01 00:00:00.0000, 1.491074671918538E+08, -4.069530201413909E+07, 6.855704064274207E+03,
2459587.500000000, A.D. 2022-Jan-08 00:00:00.0000, 1.604387593310390E+08, -2.580241380587462E+07, 1.372108232228272E+04,
2459594.500000000, A.D. 2022-Jan-15 00:00:00.0000, 1.699549557136519E+08, -1.061304758736430E+07, 2.043095962942159E+04,
2459601.500000000, A.D. 2022-Jan-22 00:00:00.0000, 1.777997447828906E+08, 4.684166497381088E+06, 2.693881700280518E+04,
2459608.500000000, A.D. 2022-Jan-29 00:00:00.0000, 1.841097489443206E+08, 1.994363704931913E+07, 3.321244780561421E+04,
2459615.500000000, A.D. 2022-Feb-05 00:00:00.0000, 1.890116008120371E+08, 3.505268782625914E+07, 3.923012210453488E+04,
2459622.500000000, A.D. 2022-Feb-12 00:00:00.0000, 1.926209941437649E+08, 4.992374061255867E+07, 4.497755369778350E+04,
2459629.500000000, A.D. 2022-Feb-19 00:00:00.0000, 1.950427995422917E+08, 6.448836226872339E+07, 5.044570367530733E+04,
2459636.500000000, A.D. 2022-Feb-26 00:00:00.0000, 1.963717139352062E+08, 7.869275557298404E+07, 5.562926051657274E+04,
2459643.500000000, A.D. 2022-Mar-05 00:00:00.0000, 1.966931432634423E+08, 9.249434506241423E+07, 6.052556620588899E+04,
2459650.500000000, A.D. 2022-Mar-12 00:00:00.0000, 1.960841529516248E+08, 1.058591855003515E+08, 6.513384263243526E+04,
2459657.500000000, A.D. 2022-Mar-19 00:00:00.0000, 1.946143989362916E+08, 1.187599862616987E+08, 6.945462830238044E+04,
2459664.500000000, A.D. 2022-Mar-26 00:00:00.0000, 1.923469967220338E+08, 1.311745969927021E+08, 7.348936195699871E+04,
2459671.500000000, A.D. 2022-Apr-02 00:00:00.0000, 1.893393110505413E+08, 1.430848395778990E+08, 7.724005931209028E+04,
2459678.500000000, A.D. 2022-Apr-09 00:00:00.0000, 1.856436626356008E+08, 1.544756011658453E+08, 8.070902785347402E+04,
2459685.500000000, A.D. 2022-Apr-16 00:00:00.0000, 1.813079556116310E+08, 1.653341255512246E+08, 8.389861653708667E+04,
2459692.500000000, A.D. 2022-Apr-23 00:00:00.0000, 1.763762310647537E+08, 1.756494567310553E+08, 8.681118706034124E+04,
2459699.500000000, A.D. 2022-Apr-30 00:00:00.0000, 1.708891527098160E+08, 1.854119970226825E+08, 8.944928819555044E+04,
2459706.500000000, A.D. 2022-May-07 00:00:00.0000, 1.648844359746787E+08, 1.946131511540459E+08, 9.181558372552693E+04,
2459713.500000000, A.D. 2022-May-14 00:00:00.0000, 1.583972296828420E+08, 2.032450391516199E+08, 9.391264495074749E+04,
2459720.500000000, A.D. 2022-May-21 00:00:00.0000, 1.514604554500948E+08, 2.113002633783661E+08, 9.574285175745189E+04,
2459727.500000000, A.D. 2022-May-28 00:00:00.0000, 1.441051107702621E+08, 2.187717169515066E+08, 9.730836537824571E+04,
2459734.500000000, A.D. 2022-Jun-04 00:00:00.0000, 1.363605418346283E+08, 2.256524241027125E+08, 9.861111967580020E+04,
2459741.500000000, A.D. 2022-Jun-11 00:00:00.0000, 1.282546913668773E+08, 2.319354053854644E+08, 9.965281613972783E+04,
2459748.500000000, A.D. 2022-Jun-18 00:00:00.0000, 1.198143261027919E+08, 2.376135621856104E+08, 1.004349189319015E+05,
2459755.500000000, A.D. 2022-Jun-25 00:00:00.0000, 1.110652480807273E+08, 2.426795761225714E+08, 1.009586438592076E+05,
2459762.500000000, A.D. 2022-Jul-02 00:00:00.0000, 1.020324936533800E+08, 2.471258198047511E+08, 1.012249234206975E+05,
2459769.500000000, A.D. 2022-Jul-09 00:00:00.0000, 9.274052412149180E+07, 2.509442763570996E+08, 1.012343268465251E+05,
2459776.500000000, A.D. 2022-Jul-16 00:00:00.0000, 8.321341127956840E+07, 2.541264666099810E+08, 1.009870280653089E+05,
2459783.500000000, A.D. 2022-Jul-23 00:00:00.0000, 7.347501894900998E+07, 2.566633822602873E+08, 1.004830275817811E+05,
2459790.500000000, A.D. 2022-Jul-30 00:00:00.0000, 6.354918384703379E+07, 2.585454202359101E+08, 9.972234773480892E+04,
2459797.500000000, A.D. 2022-Aug-06 00:00:00.0000, 5.345990278303677E+07, 2.597623178403115E+08, 9.870492305865884E+04,
2459804.500000000, A.D. 2022-Aug-13 00:00:00.0000, 4.323152897620893E+07, 2.603030905931545E+08, 9.743048217691481E+04,
2459811.500000000, A.D. 2022-Aug-20 00:00:00.0000, 3.288897981169696E+07, 2.601559716850573E+08, 9.589852671295404E+04,
2459818.500000000, A.D. 2022-Aug-27 00:00:00.0000, 2.245796043443053E+07, 2.593083521138909E+08, 9.410834846067429E+04,
2459825.500000000, A.D. 2022-Sep-03 00:00:00.0000, 1.196520843045792E+07, 2.577467216010401E+08, 9.205905746644735E+04,
2459832.500000000, A.D. 2022-Sep-10 00:00:00.0000, 1.438765563158009E+06, 2.554566109576065E+08, 8.974961464022100E+04,
2459839.500000000, A.D. 2022-Sep-17 00:00:00.0000, -9.091716451658342E+06, 2.524225370854791E+08, 8.717886451666057E+04,
2459846.500000000, A.D. 2022-Sep-24 00:00:00.0000, -1.959462776871307E+07, 2.486279525100929E+08, 8.434555845274031E+04,
2459853.500000000, A.D. 2022-Oct-01 00:00:00.0000, -3.003599957426182E+07, 2.440552024547990E+08, 8.124834654520452E+04,
2459860.500000000, A.D. 2022-Oct-08 00:00:00.0000, -4.037903797486451E+07, 2.386854945453564E+08, 7.788574740591645E+04,
2459867.500000000, A.D. 2022-Oct-15 00:00:00.0000, -5.058357858355346E+07, 2.324988890953029E+08, 7.425628314091265E+04,
2459874.500000000, A.D. 2022-Oct-22 00:00:00.0000, -6.060544553022129E+07, 2.254743181375519E+08, 7.035884501372278E+04,
2459881.500000000, A.D. 2022-Oct-29 00:00:00.0000, -7.039568961804415E+07, 2.175896448476510E+08, 6.619286010377109E+04,
2459888.500000000, A.D. 2022-Nov-05 00:00:00.0000, -7.989967545604914E+07, 2.088217868205319E+08, 6.175830501824617E+04,
2459895.500000000, A.D. 2022-Nov-12 00:00:00.0000, -8.905598492877215E+07, 1.991469346111398E+08, 5.705586136643589E+04,
2459902.500000000, A.D. 2022-Nov-19 00:00:00.0000, -9.779509541682987E+07, 1.885409083993250E+08, 5.208722138798237E+04,
2459909.500000000, A.D. 2022-Nov-26 00:00:00.0000, -1.060377815597469E+08, 1.769797163601089E+08, 4.685551777645200E+04,
2459916.500000000, A.D. 2022-Dec-03 00:00:00.0000, -1.136931806004415E+08, 1.644404084836698E+08, 4.136590309013426E+04,
2459923.500000000, A.D. 2022-Dec-10 00:00:00.0000, -1.206564543819585E+08, 1.509023636422302E+08, 3.562633378572762E+04,
2459930.500000000, A.D. 2022-Dec-17 00:00:00.0000, -1.268059800898880E+08, 1.363492126849481E+08, 2.964863513813168E+04,
2459937.500000000, A.D. 2022-Dec-24 00:00:00.0000, -1.320000158248860E+08, 1.207716957799985E+08, 2.344994373790175E+04,
2459944.500000000, A.D. 2022-Dec-31 00:00:00.0000, -1.360728338987829E+08, 1.041718905421007E+08, 1.705465776365995E+04,
2459951.500000000, A.D. 2023-Jan-07 00:00:00.0000, -1.388304295850642E+08, 8.656944226215810E+07, 1.049716945808753E+04,
2459958.500000000, A.D. 2023-Jan-14 00:00:00.0000, -1.400461616814075E+08, 6.801068318656616E+07, 3.825862668465823E+03,
2459965.500000000, A.D. 2023-Jan-21 00:00:00.0000, -1.394571723394732E+08, 4.858181972744746E+07, -2.891541015602648E+03,
2459972.500000000, A.D. 2023-Jan-28 00:00:00.0000, -1.367633516699884E+08, 2.842759642350578E+07, -9.561420108871534E+03,
2459979.500000000, A.D. 2023-Feb-04 00:00:00.0000, -1.316322139710518E+08, 7.776688828484760E+06, -1.605622155403066E+04,
2459986.500000000, A.D. 2023-Feb-11 00:00:00.0000, -1.237154913987610E+08, -1.302622362668911E+07, -2.220562837582082E+04,
2459993.500000000, A.D. 2023-Feb-18 00:00:00.0000, -1.126860813846543E+08, -3.348561722979141E+07, -2.778962864822149E+04,
2460000.500000000, A.D. 2023-Feb-25 00:00:00.0000, -9.830488905155763E+07, -5.292967358468088E+07, -3.253914634465054E+04,
2460007.500000000, A.D. 2023-Mar-04 00:00:00.0000, -8.052024243531346E+07, -7.051882027600637E+07, -3.615321765848994E+04,
2460014.500000000, A.D. 2023-Mar-11 00:00:00.0000, -5.958016520716639E+07, -8.532119444487280E+07, -3.834141452812776E+04,
2460021.500000000, A.D. 2023-Mar-18 00:00:00.0000, -3.610281970661672E+07, -9.647143118631998E+07, -3.888945146317780E+04,
2460028.500000000, A.D. 2023-Mar-25 00:00:00.0000, -1.103583527444232E+07, -1.033730738870244E+08, -3.772421873899549E+04,
2460035.500000000, A.D. 2023-Apr-01 00:00:00.0000, 1.451426498603697E+07, -1.058452890434773E+08, -3.494082739073783E+04,
2460042.500000000, A.D. 2023-Apr-08 00:00:00.0000, 3.950744912690514E+07, -1.041291972468899E+08, -3.077260785406083E+04,
2460049.500000000, A.D. 2023-Apr-15 00:00:00.0000, 6.313737740117235E+07, -9.876443295330229E+07, -2.552378733738512E+04,
2460056.500000000, A.D. 2023-Apr-22 00:00:00.0000, 8.488603277663462E+07, -9.042220924490228E+07, -1.950321166902035E+04,
2460063.500000000, A.D. 2023-Apr-29 00:00:00.0000, 1.044900174672810E+08, -7.977224968795916E+07, -1.298277514028549E+04,
2460070.500000000, A.D. 2023-May-06 00:00:00.0000, 1.218708636186686E+08, -6.740903231016701E+07, -6.181667885955423E+03,
2460077.500000000, A.D. 2023-May-13 00:00:00.0000, 1.370669276847052E+08, -5.382605693601837E+07, 7.328915190920234E+02,
2460084.500000000, A.D. 2023-May-20 00:00:00.0000, 1.501817181431759E+08, -3.941760055948530E+07, 7.637677593894303E+03,
2460091.500000000, A.D. 2023-May-27 00:00:00.0000, 1.613496805244650E+08, -2.449214563555889E+07, 1.444388909051381E+04,
2460098.500000000, A.D. 2023-Jun-03 00:00:00.0000, 1.707154817117028E+08, -9.288595626405288E+06, 2.108852837956883E+04,
2460105.500000000, A.D. 2023-Jun-10 00:00:00.0000, 1.784223638429551E+08, 6.008700683560323E+06, 2.752748558320198E+04,
2460112.500000000, A.D. 2023-Jun-17 00:00:00.0000, 1.846061301795460E+08, 2.125743190042174E+07, 3.373028509561997E+04,
2460119.500000000, A.D. 2023-Jun-24 00:00:00.0000, 1.893924498818295E+08, 3.634742022803201E+07, 3.967616963081621E+04,
2460126.500000000, A.D. 2023-Jul-01 00:00:00.0000, 1.928960346441399E+08, 5.119298902797440E+07, 4.535122978129238E+04,
2460133.500000000, A.D. 2023-Jul-08 00:00:00.0000, 1.952208183850094E+08, 6.572715592160924E+07, 5.074653619512171E+04,
2460140.500000000, A.D. 2023-Jul-15 00:00:00.0000, 1.964606345929634E+08, 7.989723407563066E+07, 5.585694968451932E+04,
2460147.500000000, A.D. 2023-Jul-22 00:00:00.0000, 1.967001092500810E+08, 9.366149917805462E+07, 6.068002927817404E+04,
$$EOE